[{"OBJECT_NAME":"YAOGAN-33 04","OBJECT_ID":"2023-149A","EPOCH":"2026-03-10T00:08:02.588928","MEAN_MOTION":14.58624687,"ECCENTRICITY":0.00010375,"INCLINATION":98.1869,"RA_OF_ASC_NODE":19.7732,"ARG_OF_PERICENTER":50.2829,"MEAN_ANOMALY":309.8461,"EPHEMERIS_TYPE":0,"CLASSIFICATION_TYPE":"U","NORAD_CAT_ID":57958,"ELEMENT_SET_NO":999,"REV_AT_EPOCH":13054,"BSTAR":0.00018482829,"MEAN_MOTION_DOT":8.15e-6,"MEAN_MOTION_DDOT":0},{"OBJECT_NAME":"CZ-6A DEB","OBJECT_ID":"2024-140JH","EPOCH":"2026-03-09T13:41:55.200192","MEAN_MOTION":14.67935609,"ECCENTRICITY":0.0100607,"INCLINATION":88.9444,"RA_OF_ASC_NODE":277.6877,"ARG_OF_PERICENTER":220.2797,"MEAN_ANOMALY":139.0937,"EPHEMERIS_TYPE":0,"CLASSIFICATION_TYPE":"U","NORAD_CAT_ID":60854,"ELEMENT_SET_NO":999,"REV_AT_EPOCH":8356,"BSTAR":0.0014236,"MEAN_MOTION_DOT":8.815e-5,"MEAN_MOTION_DDOT":0}]
